{
    "links": {
        "self": "http://www.neowsapp.com/rest/v1/neo/3403929?api_key=iIulBulltgU6a56xZRHN4H3l9WmuAYTsLGpBGhQ2"
    },
    "id": "3403929",
    "neo_reference_id": "3403929",
    "name": "(2007 XA51)",
    "designation": "2007 XA51",
    "nasa_jpl_url": "http://ssd.jpl.nasa.gov/sbdb.cgi?sstr=3403929",
    "absolute_magnitude_h": 23.3,
    "estimated_diameter": {
        "kilometers": {
            "estimated_diameter_min": 0.058150704,
            "estimated_diameter_max": 0.130028927
        },
        "meters": {
            "estimated_diameter_min": 58.1507039646,
            "estimated_diameter_max": 130.0289270043
        },
        "miles": {
            "estimated_diameter_min": 0.0361331611,
            "estimated_diameter_max": 0.0807962044
        },
        "feet": {
            "estimated_diameter_min": 190.7831555951,
            "estimated_diameter_max": 426.6041048727
        }
    },
    "is_potentially_hazardous_asteroid": false,
    "close_approach_data": [
        {
            "close_approach_date": "2007-12-10",
            "close_approach_date_full": "2007-Dec-10 11:30",
            "epoch_date_close_approach": 1197286200000,
            "relative_velocity": {
                "kilometers_per_second": "16.404868782",
                "kilometers_per_hour": "59057.5276152756",
                "miles_per_hour": "36696.0509785028"
            },
            "miss_distance": {
                "astronomical": "0.1798530705",
                "lunar": "69.9628444245",
                "kilometers": "26905636.259759835",
                "miles": "16718387.129902323"
            },
            "orbiting_body": "Earth"
        }
    ],
    "orbital_data": {
        "orbit_id": "6",
        "orbit_determination_date": "2017-04-06 09:04:54",
        "first_observation_date": "2007-12-15",
        "last_observation_date": "2007-12-17",
        "data_arc_in_days": 2,
        "observations_used": 14,
        "orbit_uncertainty": "9",
        "minimum_orbit_intersection": ".168738",
        "jupiter_tisserand_invariant": "4.634",
        "epoch_osculation": "2454450.5",
        "eccentricity": ".1647966340185399",
        "semi_major_axis": "1.381156663969226",
        "inclination": "31.46428754081502",
        "ascending_node_longitude": "78.05215887430276",
        "orbital_period": "592.8745959253288",
        "perihelion_distance": "1.153546694694822",
        "perihelion_argument": "358.890083797889",
        "aphelion_distance": "1.60876663324363",
        "perihelion_time": "2454447.703874062671",
        "mean_anomaly": "1.697838538464245",
        "mean_motion": ".6072110400313748",
        "equinox": "J2000",
        "orbit_class": {
            "orbit_class_type": "AMO",
            "orbit_class_description": "Near-Earth asteroid orbits similar to that of 1221 Amor",
            "orbit_class_range": "1.017 AU < q (perihelion) < 1.3 AU"
        }
    },
    "is_sentry_object": false
}